{
  "norad_id": 66837,
  "name": "STARLINK-35729",
  "history": [
    {
      "epoch": "2026-03-28T20:47:33.997344Z",
      "apogee_km": 574.0965172565893,
      "perigee_km": 569.9563049126064,
      "latitude_deg": 2.4505451186075073e-05,
      "longitude_deg": 148.11778834711683,
      "height_km": 574.4765447423018,
      "semi_major_axis_km": 6950.163411084598,
      "eccentricity": 0.00029785,
      "inclination_deg": 70.0007,
      "raan_deg": 286.2901,
      "arg_perigee_deg": 269.3734,
      "mean_anomaly_deg": 90.7084,
      "mean_motion_rev_day": 14.98339533
    },
    {
      "epoch": "2026-03-28T23:59:49.974144Z",
      "apogee_km": 574.0607117780446,
      "perigee_km": 569.9615144209383,
      "latitude_deg": -2.1277174483915512e-05,
      "longitude_deg": 99.58240013071254,
      "height_km": 574.4922193141762,
      "semi_major_axis_km": 6950.148113099491,
      "eccentricity": 0.0002949,
      "inclination_deg": 70.0005,
      "raan_deg": 285.9529,
      "arg_perigee_deg": 268.5003,
      "mean_anomaly_deg": 91.5818,
      "mean_motion_rev_day": 14.9834448
    },
    {
      "epoch": "2026-03-30T06:26:23.283456Z",
      "apogee_km": 574.0874588286042,
      "perigee_km": 569.9630935306741,
      "latitude_deg": -4.796738726160503e-06,
      "longitude_deg": -1.505114464343555,
      "height_km": 574.4789508232418,
      "semi_major_axis_km": 6950.162276179639,
      "eccentricity": 0.00029671,
      "inclination_deg": 70.0001,
      "raan_deg": 282.7544,
      "arg_perigee_deg": 269.2712,
      "mean_anomaly_deg": 90.8107,
      "mean_motion_rev_day": 14.983399
    },
    {
      "epoch": "2026-03-30T12:50:55.605984Z",
      "apogee_km": 574.1312827875818,
      "perigee_km": 569.9599221932185,
      "latitude_deg": 6.610079570940704e-05,
      "longitude_deg": -98.5762730855539,
      "height_km": 574.5339630029401,
      "semi_major_axis_km": 6950.182602490399,
      "eccentricity": 0.00030009,
      "inclination_deg": 70.0,
      "raan_deg": 282.0811,
      "arg_perigee_deg": 268.3268,
      "mean_anomaly_deg": 91.7548,
      "mean_motion_rev_day": 14.98333327
    },
    {
      "epoch": "2026-03-30T22:27:44.092800Z",
      "apogee_km": 574.165596484333,
      "perigee_km": 569.925429136917,
      "latitude_deg": 4.25038316145316e-05,
      "longitude_deg": 115.81727931092917,
      "height_km": 574.516275999239,
      "semi_major_axis_km": 6950.182512810625,
      "eccentricity": 0.00030504,
      "inclination_deg": 70.0,
      "raan_deg": 281.0715,
      "arg_perigee_deg": 268.831,
      "mean_anomaly_deg": 91.25,
      "mean_motion_rev_day": 14.98333356
    }
  ]
}